     2.10           GLONASS NAV DATA                        RINEX VERSION / TYPE
cnvtToRINEX 3.07.0  convertToRINEX OPR  19-May-20 12:34 UTC PGM / RUN BY / DATE 
----------------------------------------------------------- COMMENT             
  2020     5    16   -0.465661287308D-09                    CORR TO SYSTEM TIME 
    18                                                      LEAP SECONDS        
                                                            END OF HEADER       
16 20 05 16 00 15  0.0-0.355113297701D-05 0.000000000000D+00 0.126000000000D+04
   -0.575538134766D+04-0.275429916382D+01-0.931322574615D-09 0.000000000000D+00
    0.949274951172D+04-0.152190303802D+01 0.000000000000D+00-0.100000000000D+01
    0.229422929688D+05-0.500183105469D-01-0.186264514923D-08 0.000000000000D+00
 7 20 05 16 00 15  0.0-0.365478917956D-04 0.000000000000D+00 0.126000000000D+04
    0.946182763672D+04 0.599775314331D-01-0.931322574615D-09 0.000000000000D+00
    0.127029545898D+05 0.273300361633D+01 0.000000000000D+00 0.500000000000D+01
    0.200230410156D+05-0.176934623718D+01-0.186264514923D-08 0.000000000000D+00
 9 20 05 16 00 15  0.0 0.132795423269D-03 0.272848410532D-11 0.129000000000D+04
    0.143298261719D+05-0.157556056976D+01-0.931322574615D-09 0.000000000000D+00
    0.160556333008D+05-0.102778911591D+01 0.000000000000D+00-0.200000000000D+01
    0.137629916992D+05 0.283526039124D+01-0.186264514923D-08 0.000000000000D+00
19 20 05 16 00 15  0.0-0.934880226851D-04-0.909494701773D-12 0.132000000000D+04
   -0.193410229492D+05-0.893240928650D+00-0.931322574615D-09 0.000000000000D+00
    0.144233256836D+05 0.739117622375D+00 0.279396772385D-08 0.300000000000D+01
   -0.827939892578D+04 0.337544059753D+01 0.000000000000D+00 0.000000000000D+00
17 20 05 16 00 15  0.0 0.325107015669D-03 0.272848410532D-11 0.132000000000D+04
   -0.144420595703D+05 0.253649902344D+01 0.000000000000D+00 0.000000000000D+00
   -0.276556152344D+04-0.131755256653D+01 0.000000000000D+00 0.400000000000D+01
    0.208573745117D+05 0.157905673981D+01-0.931322574615D-09 0.000000000000D+00
15 20 05 16 00 15  0.0 0.106488354504D-03 0.000000000000D+00 0.132000000000D+04
   -0.198698784180D+05-0.191699600220D+01 0.000000000000D+00 0.000000000000D+00
   -0.296683935547D+04-0.983115196228D+00 0.000000000000D+00 0.000000000000D+00
    0.157351601563D+05-0.260883808136D+01 0.000000000000D+00 0.000000000000D+00
 5 20 05 16 00 15  0.0 0.505335628986D-04 0.000000000000D+00 0.135000000000D+04
   -0.607182958984D+04 0.161479949951D+00-0.931322574615D-09 0.000000000000D+00
    0.213219858398D+05-0.172598743439D+01 0.279396772385D-08 0.100000000000D+01
   -0.125829384766D+05-0.300032806396D+01 0.000000000000D+00 0.000000000000D+00
16 20 05 16 00 45  0.0-0.355113297701D-05 0.000000000000D+00 0.180000000000D+04
   -0.108130000000D+05-0.281677055359D+01 0.000000000000D+00 0.000000000000D+00
    0.715235888672D+04-0.106248378754D+01 0.000000000000D+00-0.100000000000D+01
    0.219651352539D+05-0.102829933167D+01-0.186264514923D-08 0.000000000000D+00
19 20 05 16 00 45  0.0-0.934908166528D-04-0.909494701773D-12 0.180000000000D+04
   -0.202007568359D+05-0.738162994385D-01 0.000000000000D+00 0.000000000000D+00
    0.154499018555D+05 0.359769821167D+00 0.279396772385D-08 0.300000000000D+01
   -0.196198242188D+04 0.359832477570D+01 0.000000000000D+00 0.000000000000D+00
 7 20 05 16 00 45  0.0-0.365478917956D-04 0.000000000000D+00 0.180000000000D+04
    0.988712402344D+04 0.385257720947D+00-0.931322574615D-09 0.000000000000D+00
    0.171484990234D+05 0.216714286804D+01 0.000000000000D+00 0.500000000000D+01
    0.161069951172D+05-0.255380249023D+01-0.186264514923D-08 0.000000000000D+00
 9 20 05 16 00 45  0.0 0.132800079882D-03 0.272848410532D-11 0.180000000000D+04
    0.108463408203D+05-0.227545547485D+01-0.931322574615D-09 0.000000000000D+00
    0.141704121094D+05-0.102569675446D+01 0.000000000000D+00-0.200000000000D+01
    0.182709135742D+05 0.214108753204D+01-0.186264514923D-08 0.000000000000D+00
17 20 05 16 00 45  0.0 0.325113534927D-03 0.272848410532D-11 0.180000000000D+04
   -0.984120361328D+04 0.252640342712D+01 0.000000000000D+00 0.000000000000D+00
   -0.563140722656D+04-0.185018348694D+01-0.931322574615D-09 0.400000000000D+01
    0.228577773438D+05 0.629132270813D+00-0.931322574615D-09 0.000000000000D+00
15 20 05 16 00 45  0.0 0.106489285827D-03 0.000000000000D+00 0.180000000000D+04
   -0.228729570313D+05-0.137817382813D+01 0.000000000000D+00 0.000000000000D+00
   -0.421611083984D+04-0.421586990356D+00 0.000000000000D+00 0.000000000000D+00
    0.104922192383D+05-0.317891025543D+01 0.000000000000D+00 0.000000000000D+00
19 20 05 16 01 15  0.0-0.934945419431D-04-0.909494701773D-12 0.360000000000D+04
   -0.196821665039D+05 0.620738029480D+00 0.000000000000D+00 0.000000000000D+00
    0.155846181641D+05-0.241336822510D+00 0.186264514923D-08 0.300000000000D+01
    0.450716601563D+04 0.354292583466D+01 0.000000000000D+00 0.000000000000D+00
16 20 05 16 01 15  0.0-0.355206429958D-05 0.000000000000D+00 0.360000000000D+04
   -0.157168242188D+05-0.258257389069D+01 0.000000000000D+00 0.000000000000D+00
    0.569333203125D+04-0.560646057129D+00 0.000000000000D+00-0.100000000000D+01
    0.192894736328D+05-0.192505168915D+01-0.931322574615D-09 0.000000000000D+00
 9 20 05 16 01 15  0.0 0.132803805172D-03 0.272848410532D-11 0.360000000000D+04
    0.623893164063D+04-0.280821990967D+01-0.931322574615D-09 0.000000000000D+00
    0.124984267578D+05-0.799401283264D+00 0.000000000000D+00-0.200000000000D+01
    0.213713759766D+05 0.128145790100D+01-0.186264514923D-08 0.000000000000D+00
 7 20 05 16 01 15  0.0-0.365488231182D-04 0.000000000000D+00 0.360000000000D+04
    0.107288320313D+05 0.511878967285D+00-0.931322574615D-09 0.000000000000D+00
    0.203889780273D+05 0.140942955017D+01 0.931322574615D-09 0.500000000000D+01
    0.109473779297D+05-0.314204978943D+01-0.186264514923D-08 0.000000000000D+00
20 20 05 16 01 15  0.0-0.411789864302D-03-0.909494701773D-12 0.498000000000D+04
   -0.101889829102D+05-0.133096504211D+01 0.000000000000D+00 0.000000000000D+00
    0.182891108398D+05 0.150044250488D+01 0.279396772385D-08 0.200000000000D+01
   -0.145325415039D+05 0.282494449615D+01 0.931322574615D-09 0.000000000000D+00
18 20 05 16 01 15  0.0 0.354666262865D-04 0.909494701773D-12 0.522000000000D+04
   -0.168066342773D+05 0.192297172546D+01 0.000000000000D+00 0.000000000000D+00
    0.469296679688D+04-0.167903614044D+01 0.000000000000D+00-0.300000000000D+01
    0.185901577148D+05 0.216891670227D+01-0.931322574615D-09 0.000000000000D+00
19 20 05 16 01 45  0.0-0.934973359108D-04-0.909494701773D-12 0.540000000000D+04
   -0.180957958984D+05 0.110042858124D+01 0.000000000000D+00 0.000000000000D+00
    0.144962875977D+05-0.982854843140D+00 0.931322574615D-09 0.300000000000D+01
    0.106277021484D+05 0.321349334717D+01-0.931322574615D-09 0.000000000000D+00
18 20 05 16 01 45  0.0 0.354684889317D-04 0.909494701773D-12 0.540000000000D+04
   -0.133180483398D+05 0.190672969818D+01 0.000000000000D+00 0.000000000000D+00
    0.110330615234D+04-0.228854179382D+01 0.000000000000D+00-0.300000000000D+01
    0.217244243164D+05 0.129114151001D+01-0.931322574615D-09 0.000000000000D+00
16 20 05 16 01 45  0.0-0.355113297701D-05 0.000000000000D+00 0.540000000000D+04
   -0.199421215820D+05-0.206959152222D+01 0.000000000000D+00 0.000000000000D+00
    0.509519921875D+04-0.123035430908D+00 0.000000000000D+00-0.100000000000D+01
    0.151253310547D+05-0.267157554626D+01 0.000000000000D+00 0.000000000000D+00
 9 20 05 16 01 45  0.0 0.132808461785D-03 0.181898940355D-11 0.540000000000D+04
    0.887273925781D+03-0.309134960175D+01-0.931322574615D-09 0.000000000000D+00
    0.113863945313D+05-0.417623519897D+00 0.000000000000D+00-0.200000000000D+01
    0.228242124023D+05 0.322175979614D+00-0.186264514923D-08 0.000000000000D+00
 7 20 05 16 01 45  0.0-0.365497544408D-04 0.000000000000D+00 0.540000000000D+04
    0.115829531250D+05 0.395099639893D+00-0.931322574615D-09 0.000000000000D+00
    0.221693847656D+05 0.563682556152D+00 0.186264514923D-08 0.500000000000D+01
    0.494135595703D+04-0.348802280426D+01-0.931322574615D-09 0.000000000000D+00
20 20 05 16 01 45  0.0-0.411792658269D-03-0.909494701773D-12 0.540000000000D+04
   -0.119262089844D+05-0.607297897339D+00 0.000000000000D+00 0.000000000000D+00
    0.206646318359D+05 0.109379863739D+01 0.279396772385D-08 0.200000000000D+01
   -0.895011425781D+04 0.333739185333D+01 0.000000000000D+00 0.000000000000D+00
